[{"OBJECT_NAME":"STARLINK-3818","OBJECT_ID":"2022-045K","EPOCH":"2026-03-09T15:44:21.483744","MEAN_MOTION":15.08839649,"ECCENTRICITY":0.0001086,"INCLINATION":53.2175,"RA_OF_ASC_NODE":199.2718,"ARG_OF_PERICENTER":85.5565,"MEAN_ANOMALY":274.5551,"EPHEMERIS_TYPE":0,"CLASSIFICATION_TYPE":"U","NORAD_CAT_ID":52340,"ELEMENT_SET_NO":999,"REV_AT_EPOCH":21576,"BSTAR":1.098875e-5,"MEAN_MOTION_DOT":-1.13e-6,"MEAN_MOTION_DDOT":0},{"OBJECT_NAME":"OBJECT C","OBJECT_ID":"2025-013C","EPOCH":"2026-03-09T23:45:12.010176","MEAN_MOTION":15.10546453,"ECCENTRICITY":0.00141064,"INCLINATION":97.6424,"RA_OF_ASC_NODE":238.1264,"ARG_OF_PERICENTER":358.7826,"MEAN_ANOMALY":1.3366,"EPHEMERIS_TYPE":0,"CLASSIFICATION_TYPE":"U","NORAD_CAT_ID":62731,"ELEMENT_SET_NO":999,"REV_AT_EPOCH":6235,"BSTAR":0.00030324361,"MEAN_MOTION_DOT":4.947e-5,"MEAN_MOTION_DDOT":0}]
